NORAD_CAT_ID,OBJECT_NAME,OBJECT_TYPE,EPOCH,MEAN_MOTION,ECCENTRICITY,INCLINATION,RA_OF_ASC_NODE,ARG_OF_PERICENTER,MEAN_ANOMALY,BSTAR,MEAN_MOTION_DOT,MEAN_MOTION_DDOT,TLE_LINE0,TLE_LINE1,TLE_LINE2,SEMIMAJOR_AXIS,PERIOD,APOGEE,PERIGEE,DECAYED
53803.0,STARLINK-4727,PAYLOAD,2023-06-02 06:05:14,15.08835858,0.0001236,53.2157,109.6776,97.0946,263.0186,2.9563e-06,-2.41e-06,0.0,0 STARLINK-4727,1 53803U 22111AG  23153.25364123 -.00000241  00000-0  29563-5 0  9994,2 53803  53.2157 109.6776 0001236  97.0946 263.0186 15.08835858 41335,6917.893,95.438,540.613,538.903,0.0
53803.0,STARLINK-4727,PAYLOAD,2023-06-03 04:20:38,15.08841735,0.0001155,53.2158,105.5139,97.8989,262.2135,6.7998e-05,7.95e-06,0.0,0 STARLINK-4727,1 53803U 22111AG  23154.18099755  .00000795  00000-0  67998-4 0  9999,2 53803  53.2158 105.5139 0001155  97.8989 262.2135 15.08841735 40660,6917.875,95.437,540.539,538.941,0.0
53803.0,STARLINK-4727,PAYLOAD,2023-06-03 20:14:30,15.08834856,0.000122,53.2163,102.5407,86.1766,273.9366,7.2847e-05,8.72e-06,0.0,0 STARLINK-4727,1 53803U 22111AG  23154.84340348  .00000872  00000-0  72847-4 0  9994,2 53803  53.2163 102.5407 0001220  86.1766 273.9366 15.08834856 41570,6917.896,95.438,540.605,538.917,0.0
53803.0,STARLINK-4727,PAYLOAD,2023-06-04 02:36:02,15.08836176,0.000117,53.2164,101.3507,92.6013,267.5113,5.4348e-05,5.77e-06,0.0,0 STARLINK-4727,1 53803U 22111AG  23155.10836365  .00000577  00000-0  54348-4 0  9991,2 53803  53.2164 101.3507 0001170  92.6013 267.5113 15.08836176 40801,6917.892,95.438,540.566,538.948,0.0
53803.0,STARLINK-4727,PAYLOAD,2023-06-04 04:11:25,15.08838332,0.0001212,53.2166,101.0533,89.5677,270.5454,7.0718e-05,8.38e-06,0.0,0 STARLINK-4727,1 53803U 22111AG  23155.17460216  .00000838  00000-0  70718-4 0  9995,2 53803  53.2166 101.0533 0001212  89.5677 270.5454 15.08838332 41626,6917.885,95.438,540.589,538.912,0.0
53803.0,STARLINK-4727,PAYLOAD,2023-06-05 05:37:35,15.08846736,0.0001307,53.217,96.2951,91.6085,268.5056,8.1945e-05,1.017e-05,0.0,0 STARLINK-4727,1 53803U 22111AG  23156.23443632  .00001017  00000-0  81945-4 0  9990,2 53803  53.2170  96.2951 0001307  91.6085 268.5056 15.08846736 40971,6917.86,95.437,540.629,538.821,0.0
53803.0,STARLINK-4727,PAYLOAD,2023-06-05 13:34:31,15.08841527,0.0001278,53.2168,94.8076,92.0581,268.0557,6.4096e-05,7.32e-06,0.0,0 STARLINK-4727,1 53803U 22111AG  23156.56563942  .00000732  00000-0  64096-4 0  9994,2 53803  53.2168  94.8076 0001278  92.0581 268.0557 15.08841527 41833,6917.876,95.437,540.625,538.857,0.0
53803.0,STARLINK-4727,PAYLOAD,2023-06-06 02:17:36,15.0884361,0.0001366,53.2172,92.4283,96.606,263.5088,5.0358e-05,5.14e-06,0.0,0 STARLINK-4727,1 53803U 22111AG  23157.09555827  .00000514  00000-0  50358-4 0  9990,2 53803  53.2172  92.4283 0001366  96.6060 263.5088 15.08843610 41915,6917.869,95.437,540.679,538.789,0.0
53803.0,STARLINK-4727,PAYLOAD,2023-06-06 22:57:37,15.08843921,0.0001428,53.218,88.5609,107.0644,253.0505,-9.5736e-05,-1.811e-05,0.0,0 STARLINK-4727,1 53803U 22111AG  23157.95668320 -.00001811  00000-0 -95736-4 0  9990,2 53803  53.2180  88.5609 0001428 107.0644 253.0505 15.08843921 41234,6917.868,95.437,540.721,538.746,0.0
53803.0,STARLINK-4727,PAYLOAD,2023-06-07 05:19:09,15.08841106,0.0001292,53.2176,87.3715,100.6676,259.4462,1.1226e-06,-2.7e-06,0.0,0 STARLINK-4727,1 53803U 22111AG  23158.22164129 -.00000270  00000-0  11226-5 0  9999,2 53803  53.2176  87.3715 0001292 100.6676 259.4462 15.08841106 42086,6917.877,95.437,540.636,538.848,0.0
53803.0,STARLINK-4727,PAYLOAD,2023-06-08 01:59:11,15.08835544,0.0001016,53.2172,83.5091,89.3027,270.8082,1.6566e-06,-2.61e-06,0.0,0 STARLINK-4727,1 53803U 22111AG  23159.08276717 -.00000261  00000-0  16566-5 0  9993,2 53803  53.2172  83.5091 0001016  89.3027 270.8082 15.08835544 41403,6917.894,95.438,540.462,539.056,0.0
53803.0,STARLINK-4727,PAYLOAD,2023-06-09 03:25:20,15.08848157,8.83e-05,53.2169,78.7526,86.5235,273.5859,9.904e-05,1.289e-05,0.0,0 STARLINK-4727,1 53803U 22111AG  23160.14259879  .00001289  00000-0  99040-4 0  9999,2 53803  53.2169  78.7526 0000883  86.5235 273.5859 15.08848157 41562,6917.855,95.437,540.331,539.11,0.0
53803.0,STARLINK-4727,PAYLOAD,2023-06-09 11:22:16,15.08845519,9.04e-05,53.2168,77.266,101.6743,258.435,5.1338e-05,5.3e-06,0.0,0 STARLINK-4727,1 53803U 22111AG  23160.47380105  .00000530  00000-0  51338-4 0  9998,2 53803  53.2168  77.2660 0000904 101.6743 258.4350 15.08845519 42424,6917.864,95.437,540.354,539.103,0.0
53803.0,STARLINK-4727,PAYLOAD,2023-06-10 03:16:08,15.08837573,0.0001052,53.2171,74.2919,82.9274,277.1838,6.4856e-05,7.44e-06,0.0,0 STARLINK-4727,1 53803U 22111AG  23161.13621063  .00000744  00000-0  64856-4 0  9999,2 53803  53.2171  74.2919 0001052  82.9274 277.1838 15.08837573 41718,6917.888,95.438,540.481,539.025,0.0
53803.0,STARLINK-4727,PAYLOAD,2023-06-10 11:13:04,15.08836462,0.0001098,53.2173,72.8053,88.1353,271.9765,3.4347e-05,2.59e-06,0.0,0 STARLINK-4727,1 53803U 22111AG  23161.46741292  .00000259  00000-0  34347-4 0  9995,2 53803  53.2173  72.8053 0001098  88.1353 271.9765 15.08836462 42571,6917.891,95.438,540.516,538.997,0.0
53803.0,STARLINK-4727,PAYLOAD,2023-06-10 17:34:37,15.08842043,0.0001113,53.2172,71.6153,88.7621,271.3499,-2.2937e-05,-6.53e-06,0.0,0 STARLINK-4727,1 53803U 22111AG  23161.73237277 -.00000653  00000-0 -22937-4 0  9990,2 53803  53.2172  71.6153 0001113  88.7621 271.3499 15.08842043 42615,6917.874,95.437,540.509,538.969,0.0
53803.0,STARLINK-4727,PAYLOAD,2023-06-11 11:03:51,15.08844383,0.0001121,53.2176,68.3448,82.2344,277.8776,-1.5801e-05,-5.39e-06,0.0,0 STARLINK-4727,1 53803U 22111AG  23162.46101000 -.00000539  00000-0 -15801-4 0  9990,2 53803  53.2176  68.3448 0001121  82.2344 277.8776 15.08844383 42729,6917.867,95.437,540.507,538.956,0.0
53803.0,STARLINK-4727,PAYLOAD,2023-06-11 17:25:24,15.08834193,0.0001408,53.2172,67.1566,79.5962,280.5189,0.00010512,1.385e-05,0.0,0 STARLINK-4727,1 53803U 22111AG  23162.72597463  .00001385  00000-0  10512-3 0  9992,2 53803  53.2172  67.1566 0001408  79.5962 280.5189 15.08834193 42767,6917.898,95.438,540.737,538.789,0.0
53803.0,STARLINK-4727,PAYLOAD,2023-06-12 10:54:38,15.0884088,0.0001286,53.2175,63.8853,76.8377,283.2759,5.9268e-05,6.56e-06,0.0,0 STARLINK-4727,1 53803U 22111AG  23163.45461242  .00000656  00000-0  59268-4 0  9990,2 53803  53.2175  63.8853 0001286  76.8377 283.2759 15.08840880 42871,6917.878,95.437,540.632,538.853,0.0
53803.0,STARLINK-4727,PAYLOAD,2023-06-13 02:48:29,15.08844299,0.000118,53.2178,60.9113,77.6119,282.5005,3.7031e-05,3.02e-06,0.0,0 STARLINK-4727,1 53803U 22111AG  23164.11701026  .00000302  00000-0  37031-4 0  9993,2 53803  53.2178  60.9113 0001180  77.6119 282.5005 15.08844299 42163,6917.867,95.437,540.549,538.916,0.0
53803.0,STARLINK-4727,PAYLOAD,2023-06-14 02:39:16,15.08844402,0.0001179,53.2175,56.4484,91.0929,269.0198,4.6447e-05,4.52e-06,0.0,0 STARLINK-4727,1 53803U 22111AG  23165.11060774  .00000452  00000-0  46447-4 0  9999,2 53803  53.2175  56.4484 0001179  91.0929 269.0198 15.08844402 43124,6917.867,95.437,540.548,538.916,0.0
53803.0,STARLINK-4727,PAYLOAD,2023-06-14 16:57:44,15.08839112,0.0001321,53.2183,53.7703,107.5559,252.5578,2.8773e-05,1.7e-06,0.0,0 STARLINK-4727,1 53803U 22111AG  23165.70677065  .00000170  00000-0  28773-4 0  9990,2 53803  53.2183  53.7703 0001321 107.5559 252.5578 15.08839112 42409,6917.883,95.438,540.662,538.834,0.0
53803.0,STARLINK-4727,PAYLOAD,2023-06-15 02:30:03,15.08844981,0.0001143,53.218,51.9886,87.1089,273.0034,2.954e-05,1.82e-06,0.0,0 STARLINK-4727,1 53803U 22111AG  23166.10420722  .00000182  00000-0  29540-4 0  9997,2 53803  53.2180  51.9886 0001143  87.1089 273.0034 15.08844981 43272,6917.865,95.437,540.521,538.939,0.0
53803.0,STARLINK-4727,PAYLOAD,2023-06-16 08:42:22,15.08847154,0.0001199,53.218,46.3393,86.0757,274.0373,8.0954e-06,-1.59e-06,0.0,0 STARLINK-4727,1 53803U 22111AG  23167.36276542 -.00000159  00000-0  80954-5 0  9997,2 53803  53.2180  46.3393 0001199  86.0757 274.0373 15.08847154 42657,6917.859,95.437,540.553,538.894,0.0
53803.0,STARLINK-4727,PAYLOAD,2023-06-17 08:33:11,15.08823035,0.0001872,53.2175,41.8784,87.2255,272.8951,-7.0427e-05,-1.408e-05,0.0,0 STARLINK-4727,1 53803U 22111AG  23168.35638636 -.00001408  00000-0 -70427-4 0  9995,2 53803  53.2175  41.8784 0001872  87.2255 272.8951 15.08823035 42806,6917.932,95.439,541.092,538.502,0.0
53803.0,STARLINK-4727,PAYLOAD,2023-06-18 08:23:58,15.08833681,0.000125,53.2188,37.4199,94.801,265.3125,-2.1733e-05,-6.34e-06,0.0,0 STARLINK-4727,1 53803U 22111AG  23169.34998504 -.00000634  00000-0 -21733-4 0  9994,2 53803  53.2188  37.4199 0001250  94.8010 265.3125 15.08833681 42958,6917.9,95.438,540.629,538.9,0.0
53803.0,STARLINK-4727,PAYLOAD,2023-06-18 17:56:16,15.08840214,0.0001104,53.2176,35.6357,96.516,263.5957,9.2889e-05,1.191e-05,0.0,0 STARLINK-4727,1 53803U 22111AG  23169.74741865  .00001191  00000-0  92889-4 0  9991,2 53803  53.2176  35.6357 0001104  96.5160 263.5957 15.08840214 43015,6917.88,95.438,540.508,538.981,0.0
53803.0,STARLINK-4727,PAYLOAD,2023-06-19 00:17:49,15.08849705,0.0001173,53.2178,34.4448,94.1167,265.9959,7.6994e-05,9.38e-06,0.0,0 STARLINK-4727,1 53803U 22111AG  23170.01237378  .00000938  00000-0  76994-4 0  9999,2 53803  53.2178  34.4448 0001173  94.1167 265.9959 15.08849705 43058,6917.851,95.437,540.527,538.904,0.0
53803.0,STARLINK-4727,PAYLOAD,2023-06-19 08:14:45,15.08845303,0.0001085,53.2177,32.9585,92.2316,267.88,5.5879e-05,6.02e-06,0.0,0 STARLINK-4727,1 53803U 22111AG  23170.34357711  .00000602  00000-0  55879-4 0  9996,2 53803  53.2177  32.9585 0001085  92.2316 267.8800 15.08845303 43101,6917.864,95.437,540.48,538.979,0.0
53803.0,STARLINK-4727,PAYLOAD,2023-06-19 20:57:50,15.0883634,0.000113,53.2181,30.5796,93.2938,266.8183,0.00026753,3.972e-05,0.0,0 STARLINK-4727,1 53803U 22111AG  23170.87350140  .00003972  00000-0  26753-3 0  9994,2 53803  53.2181  30.5796 0001130  93.2938 266.8183 15.08836340 43997,6917.892,95.438,540.538,538.975,0.0
